H1 CPF  1  HTS 2022  7 19 12  7001 larets           NONE
H2  0304206 5557    27944 2022 07 19  0  0  0 2022 07 24  0  0  0   180 1 1  0 0 0
H5  0.0560 
H9 
10 0 59779  47880.00000  0    4774795.478     293733.855   -5195350.309
10 0 59779  48060.00000  0    3740992.381    -102972.639   -5991212.898
10 0 59779  48240.00000  0    2561647.072    -466900.089   -6568414.537
10 0 59779  48420.00000  0    1280722.492    -781645.625   -6906282.706
10 0 59779  48600.00000  0     -53915.599   -1033822.234   -6992832.723
10 0 59779  48780.00000  0   -1392279.373   -1213598.427   -6825132.930
10 0 59779  48960.00000  0   -2684099.898   -1315063.969   -6409372.491
10 0 59779  49140.00000  0   -3880676.103   -1336413.443   -5760635.026
10 0 59779  49320.00000  0   -4936679.761   -1279945.021   -4902390.049
10 0 59779  49500.00000  0   -5811871.141   -1151875.413   -3865701.860
10 0 59779  49680.00000  0   -6472658.284    -961976.151   -2688164.223
10 0 59779  49860.00000  0   -6893436.749    -723043.495   -1412581.659
10 0 59779  50040.00000  0   -7057642.289    -450223.256     -85433.325
10 0 59779  50220.00000  0   -6958456.080    -160217.627    1244829.749
10 0 59779  50400.00000  0   -6599117.175     129584.533    2529578.889
10 0 59779  50580.00000  0   -5992826.107     402007.356    3721819.589
10 0 59779  50760.00000  0   -5162237.585     640973.566    4777940.136
10 0 59779  50940.00000  0   -4138571.915     832328.545    5659317.234
10 0 59779  51120.00000  0   -2960398.232     964562.640    6333717.755
10 0 59779  51300.00000  0   -1672147.117    1029398.252    6776457.340
10 0 59779  51480.00000  0    -322411.268    1022218.319    6971279.267
10 0 59779  51660.00000  0    1037893.097     942318.069    6910929.517
10 0 59779  51840.00000  0    2357440.161     792970.305    6597426.974
10 0 59779  52020.00000  0    3586429.640     581301.650    6042021.973
10 0 59779  52200.00000  0    4678484.448     317980.848    5264836.417
10 0 59779  52380.00000  0    5592442.444      16727.454    4294183.537
10 0 59779  52560.00000  0    6293975.254    -306342.488    3165577.913
10 0 59779  52740.00000  0    6756962.361    -633503.553    1920450.613
10 0 59779  52920.00000  0    6964541.628    -946308.790     604609.107
10 0 59779  53100.00000  0    6909781.886   -1226532.792    -733494.297
10 0 59779  53280.00000  0    6595934.034   -1457118.973   -2044617.721
10 0 59779  53460.00000  0    6036239.063   -1623078.298   -3280613.894
10 0 59779  53640.00000  0    5253311.625   -1712290.429   -4396250.714
10 0 59779  53820.00000  0    4278143.711   -1716164.750   -5350885.536
10 0 59779  54000.00000  0    3148790.266   -1630132.229   -6109927.924
10 0 59779  54180.00000  0    1908810.099   -1453948.944   -6646038.937
10 0 59779  54360.00000  0     605544.628   -1191799.421   -6940043.412
10 0 59779  54540.00000  0    -711698.571    -852203.749   -6981542.048
10 0 59779  54720.00000  0   -1993490.090    -447734.506   -6769222.731
10 0 59779  54900.00000  0   -3192097.386       5447.997   -6310875.215
10 0 59779  55080.00000  0   -4263223.250     488226.890   -5623113.619
10 0 59779  55260.00000  0   -5167622.696     979306.861   -4730817.528
10 0 59779  55440.00000  0   -5872550.198    1456115.603   -3666292.099
10 0 59779  55620.00000  0   -6352983.093    1895800.495   -2468156.408
10 0 59779  55800.00000  0   -6592563.356    2276274.954   -1179982.962
10 0 59779  55980.00000  0   -6584211.747    2577268.240     151271.511
10 0 59779  56160.00000  0   -6330372.640    2781325.111    1476990.987
10 0 59779  56340.00000  0   -5842867.385    2874704.101    2748705.102
10 0 59779  56520.00000  0   -5142362.103    2848126.170    3919894.805
10 0 59779  56700.00000  0   -4257477.730    2697331.549    4947719.890
10 0 59779  56880.00000  0   -3223590.088    2423418.612    5794591.834
10 0 59779  57060.00000  0   -2081385.399    2032953.524    6429538.040
10 0 59779  57240.00000  0    -875231.563    1537843.554    6829313.007
10 0 59779  57420.00000  0     348559.067     954978.821    6979219.572
10 0 59779  57600.00000  0    1543504.696     305658.285    6873631.573
10 0 59779  57780.00000  0    2664714.601    -385181.695    6516211.011
10 0 59779  57960.00000  0    3670580.869   -1089916.348    5919812.682
10 0 59779  58140.00000  0    4524349.031   -1779330.546    5106068.025
10 0 59779  58320.00000  0    5195507.305   -2423829.086    4104648.052
10 0 59779  58500.00000  0    5660941.879   -2994712.271    2952219.409
10 0 59779  58680.00000  0    5905801.667   -3465461.874    1691109.045
10 0 59779  58860.00000  0    5924019.792   -3812972.577     367726.161
10 0 59779  59040.00000  0    5718463.857   -4018664.085    -969198.169
10 0 59779  59220.00000  0    5300700.459   -4069409.511   -2270476.937
10 0 59779  59400.00000  0    4690383.460   -3958226.726   -3488347.333
10 0 59779  59580.00000  0    3914305.457   -3684700.550   -4578272.034
10 0 59779  59760.00000  0    3005170.372   -3255117.244   -5500581.913
10 0 59779  59940.00000  0    2000160.913   -2682312.094   -6221892.527
10 0 59779  60120.00000  0     939381.677   -1985252.114   -6716253.066
10 0 59779  60300.00000  0    -135756.461   -1188373.031   -6966010.443
10 0 59779  60480.00000  0   -1184144.970    -320700.695   -6962365.515
10 0 59779  60660.00000  0   -2166520.811     585204.102   -6705629.086
10 0 59779  60840.00000  0   -3046903.123    1494447.849   -6205183.465
10 0 59779  61020.00000  0   -3793881.982    2371119.232   -5479156.691
10 0 59779  61200.00000  0   -4381731.630    3179681.928   -4553815.334
10 0 59779  61380.00000  0   -4791311.165    3886401.555   -3462671.387
10 0 59779  61560.00000  0   -5010711.248    4460750.174   -2245322.661
10 0 59779  61740.00000  0   -5035621.499    4876729.661    -946054.425
10 0 59779  61920.00000  0   -4869396.714    5114050.504     387758.787
10 0 59779  62100.00000  0   -4522807.846    5159103.802    1707395.933
10 0 59779  62280.00000  0   -4013484.513    5005667.304    2964602.969
10 0 59779  62460.00000  0   -3365071.031    4655306.005    4113392.027
10 0 59779  62640.00000  0   -2606146.252    4117450.924    5111743.771
10 0 59779  62820.00000  0   -1768964.558    3409153.771    5923149.332
10 0 59779  63000.00000  0    -888077.619    2554528.184    6517932.154
10 0 59779  63180.00000  0       1095.642    1583907.071    6874304.875
10 0 59779  63360.00000  0     863688.620     532756.015    6979141.095
10 0 59779  63540.00000  0    1666750.159    -559621.301    6828447.470
10 0 59779  63720.00000  0    2380503.480   -1651544.820    6427527.320
10 0 59779  63900.00000  0    2979461.539   -2700545.988    5790828.478
10 0 59779  64080.00000  0    3443362.898   -3665030.515    4941469.963
10 0 59779  64260.00000  0    3757890.266   -4505956.309    3910449.001
10 0 59779  64440.00000  0    3915142.980   -5188460.264    2735541.078
10 0 59779  64620.00000  0    3913835.758   -5683358.014    1459918.227
10 0 59779  64800.00000  0    3759209.462   -5968438.136     130532.810
10 0 59779  64980.00000  0    3462655.425   -6029478.317   -1203665.358
10 0 59779  65160.00000  0    3041071.128   -5860929.978   -2493603.113
10 0 59779  65340.00000  0    2515977.992   -5466227.323   -3691957.079
10 0 59779  65520.00000  0    1912454.507   -4857709.088   -4754936.924
10 0 59779  65700.00000  0    1257944.361   -4056162.802   -5643892.379
10 0 59779  65880.00000  0     581013.266   -3090033.195   -6326683.803
10 0 59779  66060.00000  0     -89888.889   -1994343.962   -6778781.128
10 0 59779  66240.00000  0    -727606.690    -809384.423   -6984068.974
10 0 59779  66420.00000  0   -1307352.054     420784.485   -6935351.159
10 0 59779  66600.00000  0   -1807641.135    1649951.532   -6634554.660
10 0 59779  66780.00000  0   -2211068.343    2831455.609   -6092640.530
10 0 59779  66960.00000  0   -2504898.463    3919921.966   -5329229.825
10 0 59779  67140.00000  0   -2681462.651    4872987.572   -4371944.172
10 0 59779  67320.00000  0   -2738344.745    5652956.423   -3255463.189
10 0 59779  67500.00000  0   -2678345.434    6228314.374   -2020318.028
10 0 59779  67680.00000  0   -2509225.532    6575044.083    -711455.948
10 0 59779  67860.00000  0   -2243236.631    6677669.518     623386.546
10 0 59779  68040.00000  0   -1896459.861    6529978.720    1935440.736
10 0 59779  68220.00000  0   -1487975.064    6135364.633    3176728.670
10 0 59779  68400.00000  0   -1038908.102    5506763.814    4301847.630
10 0 59779  68580.00000  0    -571411.825    4666212.244    5269648.110
10 0 59779  68760.00000  0    -107623.827    3644032.730    6044740.807
10 0 59779  68940.00000  0     331343.690    2477702.966    6598771.083
10 0 59779  69120.00000  0     726335.185    1210454.054    6911430.837
10 0 59779  69300.00000  0    1060969.479    -110343.730    6971179.536
10 0 59779  69480.00000  0    1322312.520   -1434948.261    6775661.972
10 0 59779  69660.00000  0    1501382.008   -2713114.483    6331818.281
10 0 59779  69840.00000  0    1593466.284   -3896008.835    5655673.851
10 0 59779  70020.00000  0    1598244.146   -4938101.718    4771804.007
10 0 59779  70200.00000  0    1519703.684   -5798965.076    3712485.918
10 0 59779  70380.00000  0    1365861.596   -6444913.635    2516550.003
10 0 59779  70560.00000  0    1148288.458   -6850400.747    1227953.550
10 0 59779  70740.00000  0     881462.011   -6999099.932    -105864.517
10 0 59779  70920.00000  0     581978.042   -6884611.156   -1435792.183
10 0 59779  71100.00000  0     267659.434   -6510732.884   -2712932.129
10 0 59779  71280.00000  0     -43378.580   -5891291.566   -3890462.097
10 0 59779  71460.00000  0    -333658.934   -5049554.087   -4925388.884
10 0 59779  71640.00000  0    -587221.542   -4017257.028   -5780117.954
10 0 59779  71820.00000  0    -790405.178   -2833319.171   -6423779.746
10 0 59779  72000.00000  0    -932497.348   -1542306.058   -6833278.565
10 0 59779  72180.00000  0   -1006228.969    -192719.074   -6994043.774
99
